STARLINK-1194
1 25101C 20006BK  21325.12516984 -.00020901  00000-0 -14004-2 0  3256
2 25101  53.0532  92.6594 0001138  93.7331 196.7658 15.06418576    11
